[Satellite]
VERSION=1.1
NAME=Reaktor Hello World
NICKNAME=Reaktor Hello World
TLE1=1 43743U 18096AA  22335.75345158  .00018839  00000-0  48702-3 0  9991
TLE2=2 43743  97.3409  55.3056 0013679 172.9209 187.2233 15.39056071223645
STATUS=0
